NORAD_CAT_ID,OBJECT_NAME,OBJECT_TYPE,EPOCH,MEAN_MOTION,ECCENTRICITY,INCLINATION,RA_OF_ASC_NODE,ARG_OF_PERICENTER,MEAN_ANOMALY,BSTAR,MEAN_MOTION_DOT,MEAN_MOTION_DDOT,TLE_LINE0,TLE_LINE1,TLE_LINE2,SEMIMAJOR_AXIS,PERIOD,APOGEE,PERIGEE,DECAYED
54100.0,STARLINK-5185,PAYLOAD,2024-02-10 13:00:54,15.08839381,0.0001696,53.2164,137.2918,80.052,280.0663,5.5619e-05,5.97e-06,0.0,0 STARLINK-5185,1 54100U 22136BB  24041.54229183  .00000597  00000-0  55619-4 0  9990,2 54100  53.2164 137.2918 0001696  80.0520 280.0663 15.08839381 72539,6917.882,95.438,540.921,538.574,0.0
54100.0,STARLINK-5185,PAYLOAD,2024-02-10 16:11:39,15.08843307,0.0001636,53.2156,136.6927,99.1361,260.9816,4.6279e-05,4.49e-06,0.0,0 STARLINK-5185,1 54100U 22136BB  24041.67476733  .00000449  00000-0  46279-4 0  9997,2 54100  53.2156 136.6927 0001636  99.1361 260.9816 15.08843307 72553,6917.87,95.437,540.867,538.604,0.0
54100.0,STARLINK-5185,PAYLOAD,2024-02-11 11:16:17,15.08845302,0.0001557,53.216,133.1258,91.311,268.806,1.4327e-05,-6e-07,0.0,0 STARLINK-5185,1 54100U 22136BB  24042.46964643 -.00000060  00000-0  14327-4 0  9996,2 54100  53.2160 133.1258 0001557  91.3110 268.8060 15.08845302 73146,6917.864,95.437,540.806,538.652,0.0
54100.0,STARLINK-5185,PAYLOAD,2024-02-12 11:07:04,15.08852452,0.0001459,53.216,128.6688,87.599,272.5169,0.00018735,2.696e-05,0.0,0 STARLINK-5185,1 54100U 22136BB  24043.46324316  .00002696  00000-0  18735-3 0  9996,2 54100  53.2160 128.6688 0001459  87.5990 272.5169 15.08852452 72826,6917.842,95.437,540.717,538.698,0.0
54100.0,STARLINK-5185,PAYLOAD,2024-02-13 12:33:15,15.08835902,0.0001349,53.2146,123.9053,59.5028,300.6098,-4.6993e-05,-1.036e-05,0.0,0 STARLINK-5185,1 54100U 22136BB  24044.52309205 -.00001036  00000-0 -46993-4 0  9991,2 54100  53.2146 123.9053 0001349  59.5028 300.6098 15.08835902 73458,6917.893,95.438,540.691,538.825,0.0
54100.0,STARLINK-5185,PAYLOAD,2024-02-13 14:08:38,15.08834763,0.0001405,53.2158,123.6108,84.8696,275.2456,-4.8469e-05,-1.059e-05,0.0,0 STARLINK-5185,1 54100U 22136BB  24044.58933256 -.00001059  00000-0 -48469-4 0  9991,2 54100  53.2158 123.6108 0001405  84.8696 275.2456 15.08834763 72991,6917.896,95.438,540.733,538.789,0.0
54100.0,STARLINK-5185,PAYLOAD,2024-02-13 22:05:34,15.08834789,0.0001409,53.2158,122.1231,77.4689,282.6461,-2.7653e-05,-7.28e-06,0.0,0 STARLINK-5185,1 54100U 22136BB  24044.92053378 -.00000728  00000-0 -27653-4 0  9991,2 54100  53.2158 122.1231 0001409  77.4689 282.6461 15.08834789 73049,6917.896,95.438,540.736,538.787,0.0
54100.0,STARLINK-5185,PAYLOAD,2024-02-14 10:48:38,15.0884997,0.0001409,53.2147,119.7444,89.5678,270.5475,0.00015105,2.117e-05,0.0,0 STARLINK-5185,1 54100U 22136BB  24045.45044622  .00002117  00000-0  15105-3 0  9992,2 54100  53.2147 119.7444 0001409  89.5678 270.5475 15.08849970 73596,6917.85,95.437,540.69,538.74,0.0
54100.0,STARLINK-5185,PAYLOAD,2024-02-14 13:59:24,15.08857069,0.000141,53.2152,119.1497,88.8078,271.3076,0.00045741,7.003e-05,0.0,0 STARLINK-5185,1 54100U 22136BB  24045.58292373  .00007003  00000-0  45741-3 0  9992,2 54100  53.2152 119.1497 0001410  88.8078 271.3076 15.08857069 73147,6917.828,95.436,540.669,538.718,0.0
54100.0,STARLINK-5185,PAYLOAD,2024-02-14 21:56:21,15.08835805,0.0001299,53.2148,117.6629,83.1676,276.9464,9.0507e-05,1.153e-05,0.0,0 STARLINK-5185,1 54100U 22136BB  24045.91413381  .00001153  00000-0  90507-4 0  9994,2 54100  53.2148 117.6629 0001299  83.1676 276.9464 15.08835805 73190,6917.893,95.438,540.657,538.86,0.0
54100.0,STARLINK-5185,PAYLOAD,2024-02-15 04:17:54,15.08832295,0.0002041,53.215,116.4733,83.8896,276.2328,0.00017224,2.454e-05,0.0,0 STARLINK-5185,1 54100U 22136BB  24046.17910046  .00002454  00000-0  17224-3 0  9992,2 54100  53.2150 116.4733 0002041  83.8896 276.2328 15.08832295 73702,6917.904,95.438,541.181,538.357,0.0
54100.0,STARLINK-5185,PAYLOAD,2024-02-15 12:14:50,15.08831716,0.0001618,53.2153,114.9874,85.6979,274.4197,8.6482e-05,1.088e-05,0.0,0 STARLINK-5185,1 54100U 22136BB  24046.51030114  .00001088  00000-0  86482-4 0  9994,2 54100  53.2153 114.9874 0001618  85.6979 274.4197 15.08831716 73289,6917.906,95.438,540.89,538.651,0.0
54100.0,STARLINK-5185,PAYLOAD,2024-02-15 21:47:08,15.08836517,0.0001594,53.215,113.2028,84.4332,275.6842,0.00013995,1.94e-05,0.0,0 STARLINK-5185,1 54100U 22136BB  24046.90774091  .00001940  00000-0  13995-3 0  9991,2 54100  53.2150 113.2028 0001594  84.4332 275.6842 15.08836517 73343,6917.891,95.438,540.859,538.653,0.0
54100.0,STARLINK-5185,PAYLOAD,2024-02-16 10:30:13,15.08843659,0.0001471,53.2142,110.823,86.6855,273.4306,0.00033471,5.043e-05,0.0,0 STARLINK-5185,1 54100U 22136BB  24047.43765969  .00005043  00000-0  33471-3 0  9993,2 54100  53.2142 110.8230 0001471  86.6855 273.4306 15.08843659 73896,6917.869,95.437,540.752,538.717,0.0
54100.0,STARLINK-5185,PAYLOAD,2024-02-17 08:45:37,15.08845056,0.000161,53.2155,106.6619,113.8023,246.3138,0.00027548,4.1e-05,0.0,0 STARLINK-5185,1 54100U 22136BB  24048.36502030  .00004100  00000-0  27548-3 0  9995,2 54100  53.2155 106.6619 0001610 113.8023 246.3138 15.08845056 74031,6917.865,95.437,540.844,538.616,0.0
54100.0,STARLINK-5185,PAYLOAD,2024-02-17 13:31:47,15.08846843,0.0001469,53.2153,105.768,110.36,249.755,0.00027128,4.033e-05,0.0,0 STARLINK-5185,1 54100U 22136BB  24048.56373910  .00004033  00000-0  27128-3 0  9999,2 54100  53.2153 105.7680 0001469 110.3600 249.7550 15.08846843 73592,6917.859,95.437,540.741,538.708,0.0
54100.0,STARLINK-5185,PAYLOAD,2024-02-18 10:11:48,15.08845229,0.0001606,53.2155,101.8993,95.5574,264.5601,0.00024609,3.631e-05,0.0,0 STARLINK-5185,1 54100U 22136BB  24049.42486121  .00003631  00000-0  24609-3 0  9998,2 54100  53.2155 101.8993 0001606  95.5574 264.5601 15.08845229 74191,6917.864,95.437,540.84,538.618,0.0
54100.0,STARLINK-5185,PAYLOAD,2024-02-19 03:41:02,15.08839963,0.0001688,53.2159,98.631,103.1615,256.9566,0.00015359,2.157e-05,0.0,0 STARLINK-5185,1 54100U 22136BB  24050.15350424  .00002157  00000-0  15359-3 0  9990,2 54100  53.2159  98.6310 0001688 103.1615 256.9566 15.08839963 74309,6917.881,95.438,540.913,538.578,0.0
54100.0,STARLINK-5185,PAYLOAD,2024-02-19 10:02:35,15.08841489,0.000166,53.2164,97.4442,103.1855,256.9322,0.00016922,2.406e-05,0.0,0 STARLINK-5185,1 54100U 22136BB  24050.41846185  .00002406  00000-0  16922-3 0  9997,2 54100  53.2164  97.4442 0001660 103.1855 256.9322 15.08841489 73871,6917.876,95.437,540.889,538.592,0.0
54100.0,STARLINK-5185,PAYLOAD,2024-02-19 19:34:54,15.08838243,0.0001643,53.2155,95.659,86.9908,273.1272,3.7298e-05,3.06e-06,0.0,0 STARLINK-5185,1 54100U 22136BB  24050.81590474  .00000306  00000-0  37298-4 0  9995,2 54100  53.2155  95.6590 0001643  86.9908 273.1272 15.08838243 73939,6917.886,95.438,540.887,538.614,0.0
54100.0,STARLINK-5185,PAYLOAD,2024-02-20 03:31:50,15.08832555,0.0001613,53.2159,94.1727,100.3051,259.8124,6.7696e-05,7.89e-06,0.0,0 STARLINK-5185,1 54100U 22136BB  24051.14710753  .00000789  00000-0  67696-4 0  9996,2 54100  53.2159  94.1727 0001613 100.3051 259.8124 15.08832555 74451,6917.903,95.438,540.884,538.652,0.0
54100.0,STARLINK-5185,PAYLOAD,2024-02-20 09:53:22,15.08841978,0.0001522,53.2167,92.9834,97.6453,262.4712,2.6888e-05,1.4e-06,0.0,0 STARLINK-5185,1 54100U 22136BB  24051.41206613  .00000140  00000-0  26888-4 0  9990,2 54100  53.2167  92.9834 0001522  97.6453 262.4712 15.08841978 74023,6917.874,95.437,540.792,538.686,0.0
54100.0,STARLINK-5185,PAYLOAD,2024-02-20 19:25:41,15.08843957,0.0001535,53.2169,91.1991,96.7428,263.3739,3.0468e-05,1.97e-06,0.0,0 STARLINK-5185,1 54100U 22136BB  24051.80950419  .00000197  00000-0  30468-4 0  9994,2 54100  53.2169  91.1991 0001535  96.7428 263.3739 15.08843957 74552,6917.868,95.437,540.795,538.671,0.0
54100.0,STARLINK-5185,PAYLOAD,2024-02-21 09:44:09,15.08839616,0.0001536,53.2176,88.523,97.3298,262.7869,7.0328e-05,8.31e-06,0.0,0 STARLINK-5185,1 54100U 22136BB  24052.40566735  .00000831  00000-0  70328-4 0  9999,2 54100  53.2176  88.5230 0001536  97.3298 262.7869 15.08839616 74171,6917.882,95.438,540.809,538.684,0.0
54100.0,STARLINK-5185,PAYLOAD,2024-02-21 19:16:28,15.08840315,0.0001496,53.2172,86.737,88.073,272.0433,2.8553e-05,1.66e-06,0.0,0 STARLINK-5185,1 54100U 22136BB  24052.80310767  .00000166  00000-0  28553-4 0  9999,2 54100  53.2172  86.7370 0001496  88.0730 272.0433 15.08840315 74703,6917.879,95.438,540.779,538.71,0.0
54100.0,STARLINK-5185,PAYLOAD,2024-02-22 11:10:20,15.08834229,0.0001444,53.2171,83.7627,91.7952,268.3206,1.2351e-05,-9.1e-07,0.0,0 STARLINK-5185,1 54100U 22136BB  24053.46551409 -.00000091  00000-0  12351-4 0  9999,2 54100  53.2171  83.7627 0001444  91.7952 268.3206 15.08834229 74808,6917.898,95.438,540.762,538.764,0.0
54100.0,STARLINK-5185,PAYLOAD,2024-02-22 19:07:15,15.08842202,0.0001441,53.2167,82.2767,90.7657,269.3501,7.4503e-05,8.98e-06,0.0,0 STARLINK-5185,1 54100U 22136BB  24053.79670755  .00000898  00000-0  74503-4 0  9992,2 54100  53.2167  82.2767 0001441  90.7657 269.3501 15.08842202 74854,6917.874,95.437,540.736,538.742,0.0
54100.0,STARLINK-5185,PAYLOAD,2024-02-23 11:01:05,15.08854186,0.0001397,53.2163,79.3028,87.8823,272.2329,0.00015196,2.132e-05,0.0,0 STARLINK-5185,1 54100U 22136BB  24054.45909643  .00002132  00000-0  15196-3 0  9992,2 54100  53.2163  79.3028 0001397  87.8823 272.2329 15.08854186 74955,6917.837,95.437,540.668,538.736,0.0
54100.0,STARLINK-5185,PAYLOAD,2024-02-23 18:58:02,15.08838255,0.0001468,53.2178,77.8147,83.0885,277.0274,4.4484e-05,4.2e-06,0.0,0 STARLINK-5185,1 54100U 22136BB  24054.79030935  .00000420  00000-0  44484-4 0  9999,2 54100  53.2178  77.8147 0001468  83.0885 277.0274 15.08838255 75009,6917.886,95.438,540.766,538.735,0.0
54100.0,STARLINK-5185,PAYLOAD,2024-02-24 10:51:54,15.08839597,0.000148,53.2161,74.8407,89.275,270.8412,4.0833e-05,3.62e-06,0.0,0 STARLINK-5185,1 54100U 22136BB  24055.45271139  .00000362  00000-0  40833-4 0  9995,2 54100  53.2161  74.8407 0001480  89.2750 270.8412 15.08839597 74633,6917.882,95.438,540.77,538.723,0.0
